[{"OBJECT_NAME":"SAOCOM 1B","OBJECT_ID":"2020-059A","EPOCH":"2026-03-06T22:57:01.124064","MEAN_MOTION":14.82173062,"ECCENTRICITY":0.00015046,"INCLINATION":97.8885,"RA_OF_ASC_NODE":253.2654,"ARG_OF_PERICENTER":81.2285,"MEAN_ANOMALY":278.9098,"EPHEMERIS_TYPE":0,"CLASSIFICATION_TYPE":"U","NORAD_CAT_ID":46265,"ELEMENT_SET_NO":999,"REV_AT_EPOCH":29834,"BSTAR":0.00017595012,"MEAN_MOTION_DOT":1.349e-5,"MEAN_MOTION_DDOT":0},{"OBJECT_NAME":"GEESAT-6 02","OBJECT_ID":"2025-214C","EPOCH":"2026-03-09T22:45:51.302016","MEAN_MOTION":14.82997781,"ECCENTRICITY":0.00101592,"INCLINATION":49.9839,"RA_OF_ASC_NODE":48.2147,"ARG_OF_PERICENTER":195.3051,"MEAN_ANOMALY":164.7581,"EPHEMERIS_TYPE":0,"CLASSIFICATION_TYPE":"U","NORAD_CAT_ID":65714,"ELEMENT_SET_NO":999,"REV_AT_EPOCH":2477,"BSTAR":0.0003925129,"MEAN_MOTION_DOT":3.001e-5,"MEAN_MOTION_DDOT":0}]
